OBJECT_NAME,OBJECT_ID,EPOCH,MEAN_MOTION,ECCENTRICITY,INCLINATION,RA_OF_ASC_NODE,ARG_OF_PERICENTER,MEAN_ANOMALY,EPHEMERIS_TYPE,CLASSIFICATION_TYPE,NORAD_CAT_ID,ELEMENT_SET_NO,REV_AT_EPOCH,BSTAR,MEAN_MOTION_DOT,MEAN_MOTION_DDOT
STARS (KUKAI),2009-002G,2026-07-11T07:12:58.889376,14.95913213,.000996,98.1554,140.5970,89.7952,270.4409,0,U,33498,999,94208,.14176E-3,.1524E-4,0
KKS-1 (KISEKI),2009-002H,2026-07-11T11:26:07.668960,14.83183786,.0007116,98.1178,115.3036,201.6793,158.4120,0,U,33499,999,93979,.89496E-4,.675E-5,0
UK-DMC 2,2009-041C,2026-07-11T13:29:14.061120,14.76091741,.0001494,97.8858,326.9371,101.1902,258.9476,0,U,35683,999,91016,.73893E-4,.46E-5,0
OCEANSAT-2,2009-051A,2026-07-11T12:06:55.474272,13.99656597,.0017105,98.2318,176.9285,164.1699,196.0006,0,U,35931,999,88273,-.70227E-4,-.14E-5,0
SWISSCUBE,2009-051B,2026-07-11T04:23:14.980128,14.62526269,.0007656,98.4014,100.4874,129.8333,230.3542,0,U,35932,999,89266,.1145E-3,.531E-5,0
BEESAT-1,2009-051C,2026-07-11T04:54:53.661600,14.61758109,.0005911,98.3941,100.0947,140.2385,219.9249,0,U,35933,999,89269,.97507E-4,.437E-5,0
ITUPSAT1,2009-051E,2026-07-10T04:32:15.089856,14.60474362,.00077396,98.4025,98.2308,157.5053,202.6487,0,U,35935,999,89209,.10252703E-3,.448E-5,0
DMSP 5D-3 F18 (USA 210),2009-057A,2026-07-11T11:12:52.312032,14.14910097,.0011004,98.9053,173.1854,175.9454,184.1810,0,U,35951,999,86302,.11606E-3,.18E-5,0
PROBA-2,2009-059B,2026-07-11T10:47:08.882304,14.54872679,.0012742,98.2457,15.4667,200.5903,159.4782,0,U,36037,999,88505,.34681E-4,.104E-5,0
YAOGAN-7,2009-069A,2026-07-08T14:48:32.591232,14.78031471,.00239353,98.0044,75.3492,333.3807,26.6172,0,U,36110,999,89279,.54067378E-4,.339E-5,0
XIWANG-1 (HOPE-1),2009-072B,2026-07-11T11:42:08.703936,13.16438201,.0007421,100.4029,145.9325,173.0388,187.0829,0,U,36122,999,79620,-.90435E-3,-.39E-5,0
COSMOS 2463,2010-017A,2026-07-11T11:47:15.556128,13.71667077,.0037445,82.9584,231.8491,63.8643,48.3935,0,U,36519,999,81126,.37285E-4,.49E-6,0
CARTOSAT-2B,2010-035A,2026-07-11T11:57:20.591136,14.78615367,.0012512,97.9946,242.8907,109.8331,250.4230,0,U,36795,999,86344,.10411E-3,.711E-5,0
TISAT 1,2010-035E,2026-07-11T06:45:00.804384,15.32633143,.00042,98.0705,140.9857,128.1022,232.0597,0,U,36799,999,87139,.40645E-3,.1273E-3,0
YAOGAN-10,2010-038A,2026-07-11T13:06:39.590784,14.85421636,.0001661,97.8977,215.7562,81.2790,41.4423,0,U,36834,999,86082,.86348E-4,.69E-5,0
SHIJIAN-6 04B (SJ-6 04B),2010-051B,2026-07-11T12:22:10.800192,14.99384061,.0007285,97.8744,198.1851,224.3055,135.7585,0,U,37180,999,85932,.5971E-4,.669E-5,0
FENGYUN 3B,2010-059A,2026-07-11T13:44:33.846144,14.14847605,.0023063,98.9613,238.6890,116.4133,7.7566,0,U,37214,999,81087,.25395E-3,.446E-5,0
COSMO-SKYMED 4,2010-060A,2026-07-11T11:27:34.438752,14.82148387,.0001513,97.8896,15.7261,86.1257,274.0129,0,U,37216,999,84816,.8497E-4,.624E-5,0
O/OREOS (USA 219),2010-062C,2026-07-09T23:09:45.136800,14.93839355,.00136796,71.9708,28.7386,15.3805,344.7778,0,U,37224,999,12004,.1364878E-3,.1388E-4,0
RESOURCESAT-2,2011-015A,2026-07-11T10:35:43.080576,14.21605339,.0011373,98.7633,259.7144,181.6176,178.4966,0,U,37387,999,78962,.24568E-4,.1E-6,0
YOUTHSAT,2011-015B,2026-07-11T12:28:54.620832,14.25639667,.0013157,98.3700,165.4791,271.0047,200.1826,0,U,37388,999,79110,.54353E-4,.87E-6,0
APRIZESAT 6,2011-044F,2026-07-11T05:11:31.100352,14.76953133,.0043385,98.2343,103.2048,10.9568,150.0729,0,U,37793,999,80069,.67179E-4,.423E-5,0
JUGNU,2011-058B,2026-07-11T05:36:35.871264,14.13782829,.0018443,19.9591,162.3323,342.6467,134.7204,0,U,37839,999,76243,.48953E-4,.361E-5,0
SRMSAT,2011-058D,2026-07-11T07:46:27.887232,14.11580564,.0011857,19.9716,273.3792,108.9537,302.7584,0,U,37841,999,76123,.46525E-4,.351E-5,0
SUOMI NPP,2011-061A,2026-07-11T12:24:48.150144,14.19522179,.0000601,98.7956,133.2277,238.5697,121.5420,0,U,37849,999,76189,.32029E-4,.23E-6,0
YAOGAN-12,2011-066B,2026-07-11T04:31:18.777792,15.26868362,.0010788,97.1134,229.6296,134.5663,225.6460,0,U,37875,999,81570,.11248E-3,.2904E-4,0
